start=new Date('2022-10-12T00:00:00.000Z').valueOf();
sats=[{"OBJECT_ID":"2020-057AS","MEAN_MOTION":"15.06400886","REV_AT_EPOCH":"11895","SITE":"AFETR","ECCENTRICITY":"0.00028100","FILE":"3603543","LAUNCH_DATE":"2020-08-18","APOAPSIS":"549.157","PERIAPSIS":"545.265","MEAN_ELEMENT_THEORY":"SGP4","SEMIMAJOR_AXIS":"6925.346","MEAN_MOTION_DDOT":"0.0000000000000","MEAN_MOTION_DOT":"0.00004064","TIME_SYSTEM":"UTC","TLE_LINE1":"1 46157U 20057AS  22284.52739239  .00004064  00000-0  29156-3 0  9995","GP_ID":"214778599","DECAY_DATE":null,"EPOCH":"2022-10-11T12:39:26.702496","RCS_SIZE":"LARGE","COUNTRY_CODE":"US","INCLINATION":"53.0551","EPHEMERIS_TYPE":"0","TLE_LINE2":"2 46157  53.0551 106.3818 0002810  50.1478 309.9757 15.06400886118959","RA_OF_ASC_NODE":"106.3818","OBJECT_NAME":"STARLINK-1587","PERIOD":"95.592","BSTAR":"0.00029156000000","CLASSIFICATION_TYPE":"U","CENTER_NAME":"EARTH","REF_FRAME":"TEME","ARG_OF_PERICENTER":"50.1478","NORAD_CAT_ID":"46157","ELEMENT_SET_NO":"999","OBJECT_TYPE":"PAYLOAD","MEAN_ANOMALY":"309.9757"},{"TIME_SYSTEM":"UTC","MEAN_MOTION_DOT":"-0.00002341","DECAY_DATE":null,"GP_ID":"214818822","TLE_LINE1":"1 46158U 20057AT  22284.85543683 -.00002341  00000-0 -13840-3 0  9999","SEMIMAJOR_AXIS":"6925.393","MEAN_ELEMENT_THEORY":"SGP4","MEAN_MOTION_DDOT":"0.0000000000000","ECCENTRICITY":"0.00014670","SITE":"AFETR","OBJECT_ID":"2020-057AT","MEAN_MOTION":"15.06385367","REV_AT_EPOCH":"12026","PERIAPSIS":"546.242","LAUNCH_DATE":"2020-08-18","APOAPSIS":"548.274","FILE":"3604484","OBJECT_TYPE":"PAYLOAD","MEAN_ANOMALY":"260.0430","REF_FRAME":"TEME","CENTER_NAME":"EARTH","CLASSIFICATION_TYPE":"U","ELEMENT_SET_NO":"999","NORAD_CAT_ID":"46158","ARG_OF_PERICENTER":"100.0724","EPHEMERIS_TYPE":"0","TLE_LINE2":"2 46158  53.0521 104.9017 0001467 100.0724 260.0430 15.06385367120266","INCLINATION":"53.0521","COUNTRY_CODE":"US","BSTAR":"-0.00013840000000","PERIOD":"95.593","OBJECT_NAME":"STARLINK-1589","RA_OF_ASC_NODE":"104.9017","RCS_SIZE":"LARGE","EPOCH":"2022-10-11T20:31:49.742112"},{"CLASSIFICATION_TYPE":"U","CENTER_NAME":"EARTH","REF_FRAME":"TEME","ARG_OF_PERICENTER":"96.2626","NORAD_CAT_ID":"46159","ELEMENT_SET_NO":"999","OBJECT_TYPE":"PAYLOAD","MEAN_ANOMALY":"263.8519","EPOCH":"2022-10-11T15:08:03.808896","RCS_SIZE":"LARGE","COUNTRY_CODE":"US","INCLINATION":"53.0557","EPHEMERIS_TYPE":"0","TLE_LINE2":"2 46159  53.0557 145.9171 0001370  96.2626 263.8519 15.06386204119664","RA_OF_ASC_NODE":"145.9171","OBJECT_NAME":"STARLINK-1595","PERIOD":"95.593","BSTAR":"-0.00009905300000","MEAN_ELEMENT_THEORY":"SGP4","SEMIMAJOR_AXIS":"6925.391","MEAN_MOTION_DDOT":"0.0000000000000","MEAN_MOTION_DOT":"-0.00001756","TIME_SYSTEM":"UTC","GP_ID":"214819570","TLE_LINE1":"1 46159U 20057AU  22284.63059964 -.00001756  00000-0 -99053-4 0  9990","DECAY_DATE":null,"REV_AT_EPOCH":"11966","MEAN_MOTION":"15.06386204","OBJECT_ID":"2020-057AU","SITE":"AFETR","ECCENTRICITY":"0.00013700","FILE":"3604484","LAUNCH_DATE":"2020-08-18","APOAPSIS":"548.205","PERIAPSIS":"546.307"},{"MEAN_ELEMENT_THEORY":"SGP4","SEMIMAJOR_AXIS":"6925.438","MEAN_MOTION_DDOT":"0.0000000000000","MEAN_MOTION_DOT":"0.00004504","TIME_SYSTEM":"UTC","TLE_LINE1":"1 46160U 20057AV  22284.68772340  .00004504  00000-0  32131-3 0  9992","GP_ID":"214819822","DECAY_DATE":null,"MEAN_MOTION":"15.06370771","REV_AT_EPOCH":"11994","OBJECT_ID":"2020-057AV","SITE":"AFETR","ECCENTRICITY":"0.00016980","FILE":"3604484","APOAPSIS":"548.479","LAUNCH_DATE":"2020-08-18","PERIAPSIS":"546.127","CLASSIFICATION_TYPE":"U","REF_FRAME":"TEME","CENTER_NAME":"EARTH","ARG_OF_PERICENTER":"116.9187","NORAD_CAT_ID":"46160","ELEMENT_SET_NO":"999","OBJECT_TYPE":"PAYLOAD","MEAN_ANOMALY":"243.1975","EPOCH":"2022-10-11T16:30:19.301760","RCS_SIZE":"LARGE","COUNTRY_CODE":"US","INCLINATION":"53.0549","EPHEMERIS_TYPE":"0","TLE_LINE2":"2 46160  53.0549 125.6475 0001698 116.9187 243.1975 15.06370771119944","RA_OF_ASC_NODE":"125.6475","OBJECT_NAME":"STARLINK-1598","PERIOD":"95.594","BSTAR":"0.00032131000000"},{"COUNTRY_CODE":"US","INCLINATION":"53.0528","TLE_LINE2":"2 46161  53.0528 125.7438 0001469 107.4579 252.6571 15.06376325119946","EPHEMERIS_TYPE":"0","RA_OF_ASC_NODE":"125.7438","OBJECT_NAME":"STARLINK-1600","PERIOD":"95.594","BSTAR":"-0.00034603000000","EPOCH":"2022-10-11T15:58:29.094528","RCS_SIZE":"LARGE","OBJECT_TYPE":"PAYLOAD","MEAN_ANOMALY":"252.6571","CLASSIFICATION_TYPE":"U","CENTER_NAME":"EARTH","REF_FRAME":"TEME","ARG_OF_PERICENTER":"107.4579","NORAD_CAT_ID":"46161","ELEMENT_SET_NO":"999","OBJECT_ID":"2020-057AW","MEAN_MOTION":"15.06376325","REV_AT_EPOCH":"11994","SITE":"AFETR","ECCENTRICITY":"0.00014690","FILE":"3604484","LAUNCH_DATE":"2020-08-18","APOAPSIS":"548.303","PERIAPSIS":"546.269","MEAN_MOTION_DOT":"-0.00005428","TIME_SYSTEM":"UTC","TLE_LINE1":"1 46161U 20057AW  22284.66561452 -.00005428  00000-0 -34603-3 0  9995","GP_ID":"214820572","DECAY_DATE":null,"MEAN_ELEMENT_THEORY":"SGP4","SEMIMAJOR_AXIS":"6925.421","MEAN_MOTION_DDOT":"0.0000000000000"},{"MEAN_ELEMENT_THEORY":"SGP4","SEMIMAJOR_AXIS":"6925.397","MEAN_MOTION_DDOT":"0.0000000000000","TIME_SYSTEM":"UTC","MEAN_MOTION_DOT":"-0.00001774","GP_ID":"214819322","TLE_LINE1":"1 46162U 20057AX  22284.66929849 -.00001774  00000-0 -10030-3 0  9992","DECAY_DATE":null,"MEAN_MOTION":"15.06384294","OBJECT_ID":"2020-057AX","REV_AT_EPOCH":"11995","SITE":"AFETR","ECCENTRICITY":"0.00013880","FILE":"3604484","LAUNCH_DATE":"2020-08-18","APOAPSIS":"548.223","PERIAPSIS":"546.300","CLASSIFICATION_TYPE":"U","REF_FRAME":"TEME","CENTER_NAME":"EARTH","ARG_OF_PERICENTER":"109.1288","NORAD_CAT_ID":"46162","ELEMENT_SET_NO":"999","OBJECT_TYPE":"PAYLOAD","MEAN_ANOMALY":"250.9851","EPOCH":"2022-10-11T16:03:47.389536","RCS_SIZE":"LARGE","COUNTRY_CODE":"US","INCLINATION":"53.0527","EPHEMERIS_TYPE":"0","TLE_LINE2":"2 46162  53.0527 125.7452 0001388 109.1288 250.9851 15.06384294119955","RA_OF_ASC_NODE":"125.7452","OBJECT_NAME":"STARLINK-1603","PERIOD":"95.593","BSTAR":"-0.00010030000000"},{"RCS_SIZE":"LARGE","EPOCH":"2022-10-11T20:47:45.920544","PERIOD":"95.593","BSTAR":"-0.00007197700000","RA_OF_ASC_NODE":"104.8449","OBJECT_NAME":"STARLINK-1610","INCLINATION":"53.0557","TLE_LINE2":"2 46163  53.0557 104.8449 0001392 102.6276 257.4869 15.06388777119000","EPHEMERIS_TYPE":"0","COUNTRY_CODE":"US","NORAD_CAT_ID":"46163","ELEMENT_SET_NO":"999","ARG_OF_PERICENTER":"102.6276","CLASSIFICATION_TYPE":"U","REF_FRAME":"TEME","CENTER_NAME":"EARTH","MEAN_ANOMALY":"257.4869","OBJECT_TYPE":"PAYLOAD","LAUNCH_DATE":"2020-08-18","PERIAPSIS":"546.284","APOAPSIS":"548.212","FILE":"3604484","SITE":"AFETR","ECCENTRICITY":"0.00013920","OBJECT_ID":"2020-057AY","REV_AT_EPOCH":"11900","MEAN_MOTION":"15.06388777","MEAN_MOTION_DDOT":"0.0000000000000","SEMIMAJOR_AXIS":"6925.383","MEAN_ELEMENT_THEORY":"SGP4","DECAY_DATE":null,"TLE_LINE1":"1 46163U 20057AY  22284.86650371 -.00001353  00000-0 -71977-4 0  9997","GP_ID":"214819073","TIME_SYSTEM":"UTC","MEAN_MOTION_DOT":"-0.00001353"},{"OBJECT_TYPE":"PAYLOAD","MEAN_ANOMALY":"256.1560","REF_FRAME":"TEME","CENTER_NAME":"EARTH","CLASSIFICATION_TYPE":"U","ARG_OF_PERICENTER":"103.9580","ELEMENT_SET_NO":"999","NORAD_CAT_ID":"46164","COUNTRY_CODE":"US","EPHEMERIS_TYPE":"0","TLE_LINE2":"2 46164  53.0533 105.7434 0001360 103.9580 256.1560 15.06387837120233","INCLINATION":"53.0533","OBJECT_NAME":"STARLINK-1612","RA_OF_ASC_NODE":"105.7434","BSTAR":"-0.00011687000000","PERIOD":"95.593","EPOCH":"2022-10-11T15:55:49.591488","RCS_SIZE":"LARGE","MEAN_MOTION_DOT":"-0.00002021","TIME_SYSTEM":"UTC","TLE_LINE1":"1 46164U 20057AZ  22284.66376842 -.00002021  00000-0 -11687-3 0  9998","GP_ID":"214820322","DECAY_DATE":null,"MEAN_ELEMENT_THEORY":"SGP4","SEMIMAJOR_AXIS":"6925.386","MEAN_MOTION_DDOT":"0.0000000000000","MEAN_MOTION":"15.06387837","OBJECT_ID":"2020-057AZ","REV_AT_EPOCH":"12023","ECCENTRICITY":"0.00013600","SITE":"AFETR","FILE":"3604484","LAUNCH_DATE":"2020-08-18","APOAPSIS":"548.193","PERIAPSIS":"546.309"},{"SITE":"AFETR","ECCENTRICITY":"0.00021550","REV_AT_EPOCH":"11856","MEAN_MOTION":"15.17527275","OBJECT_ID":"2020-057BA","PERIAPSIS":"511.834","LAUNCH_DATE":"2020-08-18","APOAPSIS":"514.804","FILE":"3604484","SEMIMAJOR_AXIS":"6891.454","MEAN_ELEMENT_THEORY":"SGP4","MEAN_MOTION_DDOT":"0.0000000000000","MEAN_MOTION_DOT":"0.00027857","TIME_SYSTEM":"UTC","DECAY_DATE":null,"TLE_LINE1":"1 46165U 20057BA  22284.68060944  .00027857  00000-0  13821-2 0  9997","GP_ID":"214820073","RCS_SIZE":"LARGE","EPOCH":"2022-10-11T16:20:04.655616","INCLINATION":"53.0538","EPHEMERIS_TYPE":"0","TLE_LINE2":"2 46165  53.0538 135.2704 0002155 191.6060 168.4885 15.17527275118569","COUNTRY_CODE":"US","PERIOD":"94.891","BSTAR":"0.00138210000000","RA_OF_ASC_NODE":"135.2704","OBJECT_NAME":"STARLINK-1613","CLASSIFICATION_TYPE":"U","REF_FRAME":"TEME","CENTER_NAME":"EARTH","NORAD_CAT_ID":"46165","ELEMENT_SET_NO":"999","ARG_OF_PERICENTER":"191.6060","OBJECT_TYPE":"PAYLOAD","MEAN_ANOMALY":"168.4885"},{"EPOCH":"2022-10-11T17:10:09.321024","RCS_SIZE":"LARGE","COUNTRY_CODE":"US","INCLINATION":"53.0556","TLE_LINE2":"2 46166  53.0556 145.5353 0001143  99.6216 260.4902 15.06379712118427","EPHEMERIS_TYPE":"0","RA_OF_ASC_NODE":"145.5353","OBJECT_NAME":"STARLINK-1615","PERIOD":"95.593","BSTAR":"-0.00007745600000","CLASSIFICATION_TYPE":"U","REF_FRAME":"TEME","CENTER_NAME":"EARTH","ARG_OF_PERICENTER":"99.6216","NORAD_CAT_ID":"46166","ELEMENT_SET_NO":"999","OBJECT_TYPE":"PAYLOAD","MEAN_ANOMALY":"260.4902","MEAN_MOTION":"15.06379712","OBJECT_ID":"2020-057BB","REV_AT_EPOCH":"11842","SITE":"AFETR","ECCENTRICITY":"0.00011430","FILE":"3604484","LAUNCH_DATE":"2020-08-18","PERIAPSIS":"546.484","APOAPSIS":"548.067","MEAN_ELEMENT_THEORY":"SGP4","SEMIMAJOR_AXIS":"6925.411","MEAN_MOTION_DDOT":"0.0000000000000","TIME_SYSTEM":"UTC","MEAN_MOTION_DOT":"-0.00001434","TLE_LINE1":"1 46166U 20057BB  22284.71538566 -.00001434  00000-0 -77456-4 0  9993","GP_ID":"214818823","DECAY_DATE":null}];
